MEAN_MOTION;ECCENTRICITY;INCLINATION;RA_OF_ASC_NODE;ARG_OF_PERICENTER;MEAN_ANOMALY;BSTAR;MEAN_MOTION_DOT;MEAN_MOTION_DDOT;TYPE
0.99621593;0.0014819;12.3263;319.1744;34.3693;154.3695;0;8.3E-7;0;Intelsat
0.99622167;0.0014804;12.3242;319.1602;34.4426;228.4302;0;7.2E-7;0;Intelsat
0.99622515;0.0014794;12.3227;319.1502;34.5566;176.8438;0;6.3E-7;0;Intelsat
0.99623091;0.0014784;12.3207;319.1362;34.7296;249.1875;0;5.0E-7;0;Intelsat
0.99623091;0.0014784;12.3207;319.1362;34.7296;249.1875;0;5.0E-7;0;Intelsat
0.99623484;0.0014782;12.319;319.1246;34.6685;246.2912;0;3.8E-7;0;Intelsat
0.996238;0.0014786;12.3177;319.1161;34.7357;150.4437;0;2.9E-7;0;Intelsat
0.99624218;0.0014789;12.3162;319.1058;34.7847;110.5798;0;1.8E-7;0;Intelsat
0.99624449;0.0014795;12.3151;319.0988;34.8351;326.0662;0;1.1E-7;0;Intelsat
0.99624857;0.0014801;12.3134;319.0873;34.9417;326.2875;0;-2.0E-8;0;Intelsat
0.99625074;0.0014802;12.3125;319.0815;35.0095;146.4213;0;-8.0E-8;0;Intelsat
0.99625266;0.0014809;12.3117;319.0756;35.0654;326.5252;0;-1.5E-7;0;Intelsat
0.99625443;0.0014811;12.3108;319.0698;35.1179;146.6254;0;-2.1E-7;0;Intelsat
0.99625855;0.0014821;12.309;319.0583;35.2396;146.8181;0;-3.5E-7;0;Intelsat
0.99626022;0.0014823;12.3081;319.0525;35.3291;326.8498;0;-4.2E-7;0;Intelsat
0.99626183;0.001483;12.3072;319.0467;35.3737;146.9915;0;-5.0E-7;0;Intelsat
0.99626342;0.0014833;12.3063;319.0408;35.4618;327.0279;0;-5.7E-7;0;Intelsat
0.99626524;0.0014845;12.3054;319.035;35.4861;147.1976;0;-6.5E-7;0;Intelsat
0.99626669;0.0014845;12.3046;319.0292;35.5859;327.1834;0;-7.3E-7;0;Intelsat
0.99626897;0.0014853;12.3032;319.0204;35.7194;238.3869;0;-8.6E-7;0;Intelsat
0.99626958;0.0014851;12.3028;319.0175;35.7646;327.3271;0;-9.0E-7;0;Intelsat
0.99627095;0.001486;12.3019;319.0117;35.8292;147.4094;0;-9.8E-7;0;Intelsat
0.99627232;0.0014849;12.301;319.0059;35.9547;327.4348;0;-1.07E-6;0;Intelsat
0.99627465;0.0014853;12.2992;318.9943;36.1301;327.5796;0;-1.25E-6;0;Intelsat
0.99627571;0.0014864;12.2982;318.9884;36.1979;149.2745;0;-1.33E-6;0;Intelsat
0.99627664;0.0014852;12.2973;318.9826;36.3056;327.7272;0;-1.42E-6;0;Intelsat
0.99627812;0.0014853;12.296;318.9742;36.4713;231.5938;0;-1.55E-6;0;Intelsat
0.99627871;0.0014846;12.2956;318.9711;36.4928;327.8555;0;-1.6E-6;0;Intelsat
0.99627977;0.0014838;12.2937;318.9595;36.7028;327.9526;0;-1.77E-6;0;Intelsat
0.9962809;0.0014825;12.2919;318.948;36.9091;328.0424;0;-1.94E-6;0;Intelsat
0.9962809;0.0014825;12.2919;318.948;36.9091;328.0424;0;-1.94E-6;0;Intelsat
0.99628129;0.0014826;12.2908;318.9409;37.0403;188.7237;0;-2.04E-6;0;Intelsat
0.99628205;0.0014811;12.2892;318.9309;37.2024;138.9142;0;-2.19E-6;0;Intelsat
0.9962819;0.0014776;12.2864;318.9132;37.4562;328.465;0;-2.43E-6;0;Intelsat
0.99628146;0.0014763;12.2852;318.9048;37.5895;229.912;0;-2.54E-6;0;Intelsat
0.99628087;0.0014746;12.2837;318.8954;37.7161;161.0836;0;-2.67E-6;0;Intelsat
0.9962799;0.0014726;12.282;318.8842;37.8552;148.8418;0;-2.81E-6;0;Intelsat
0.99627821;0.0014699;12.2802;318.8723;38.0025;157.1554;0;-2.96E-6;0;Intelsat
0.99627632;0.0014675;12.2784;318.8609;38.1289;149.198;0;-3.1E-6;0;Intelsat
0.99627369;0.0014649;12.2766;318.8483;38.2474;176.6792;0;-3.25E-6;0;Intelsat
0.99627097;0.001463;12.2749;318.8374;38.3522;156.5059;0;-3.36E-6;0;Intelsat
0.99626784;0.0014612;12.2732;318.8261;38.4413;149.764;0;-3.47E-6;0;Intelsat
0.99626443;0.0014601;12.2715;318.8146;38.5266;150.0484;0;-3.55E-6;0;Intelsat
0.99625989;0.0014587;12.2696;318.8021;38.6153;178.4737;0;-3.61E-6;0;Intelsat
0.99625595;0.0014583;12.268;318.7916;38.6752;150.5277;0;-3.64E-6;0;Intelsat
0.99625374;0.0014583;12.2671;318.7858;38.7191;330.6129;0;-3.64E-6;0;Intelsat
0.99624961;0.0014581;12.2654;318.7752;38.7974;305.1357;0;-3.63E-6;0;Intelsat
0.99624463;0.0014581;12.2636;318.7637;38.8867;305.3597;0;-3.6E-6;0;Intelsat
0.99624428;0.0014579;12.2635;318.7629;38.8943;331.0398;0;-3.59E-6;0;Intelsat
0.99623985;0.001458;12.2618;318.7522;38.979;305.5603;0;-3.55E-6;0;Intelsat
0.99623696;0.0014579;12.2608;318.7456;39.0117;151.393;0;-3.51E-6;0;Intelsat
0.99623422;0.001458;12.2599;318.7398;39.096;331.4371;0;-3.46E-6;0;Intelsat
0.99623148;0.0014586;12.259;318.7343;39.0868;145.3315;0;-3.42E-6;0;Intelsat
0.99622634;0.0014588;12.2572;318.7226;39.2044;149.3529;0;-3.32E-6;0;Intelsat
0.99622404;0.0014588;12.2564;318.7176;39.2986;306.124;0;-3.27E-6;0;Intelsat
0.99622362;0.0014586;12.2562;318.7168;39.3068;331.8342;0;-3.26E-6;0;Intelsat
0.996221;0.0014588;12.2553;318.711;39.3362;151.9419;0;-3.21E-6;0;Intelsat
0.99621844;0.0014582;12.2545;318.7061;39.4516;306.1724;0;-3.15E-6;0;Intelsat
0.99621298;0.0014579;12.2526;318.6945;39.5949;306.4169;0;-3.02E-6;0;Intelsat
0.99621271;0.0014579;12.2524;318.6937;39.5958;332.1347;0;-3.01E-6;0;Intelsat
0.99620986;0.0014587;12.2515;318.6881;39.6056;147.9027;0;-2.94E-6;0;Intelsat
0.99620496;0.0014577;12.2497;318.6767;39.782;145.3818;0;-2.79E-6;0;Intelsat
0.99619972;0.0014564;12.2477;318.6642;39.9777;174.6882;0;-2.6E-6;0;Intelsat
0.99619512;0.0014546;12.246;318.6537;40.1505;142.8704;0;-2.44E-6;0;Intelsat
0.99618848;0.0014514;12.2433;318.6372;40.4259;302.5783;0;-2.17E-6;0;Intelsat
0.99618795;0.0014512;12.2432;318.6363;40.4391;332.6578;0;-2.15E-6;0;Intelsat
0.99618574;0.0014505;12.2422;318.6305;40.5253;152.7195;0;-2.05E-6;0;Intelsat
0.99618163;0.0014479;12.2404;318.6191;40.7104;152.8014;0;-1.85E-6;0;Intelsat
0.99617949;0.0014461;12.2394;318.6134;40.8038;332.8434;0;-1.74E-6;0;Intelsat
0.99617797;0.0014444;12.2385;318.6078;40.9133;146.5792;0;-1.64E-6;0;Intelsat
0.99617404;0.0014415;12.2366;318.5961;41.0792;152.9679;0;-1.43E-6;0;Intelsat
0.9961725;0.0014403;12.2358;318.5904;41.1457;333.0295;0;-1.33E-6;0;Intelsat
0.99617106;0.0014384;12.2349;318.585;41.2401;143.1958;0;-1.23E-6;0;Intelsat
0.99616839;0.0014349;12.233;318.5732;41.3975;148.4864;0;-1.03E-6;0;Intelsat
0.99616587;0.0014317;12.2313;318.5622;41.5307;127.6473;0;-8.5E-7;0;Intelsat
0.99616323;0.001428;12.2294;318.5498;41.6515;153.4807;0;-6.7E-7;0;Intelsat
0.99616174;0.0014261;12.2277;318.5385;41.7078;143.5829;0;-5.1E-7;0;Intelsat
0.99616083;0.0014235;12.2258;318.5266;41.7762;153.8864;0;-3.5E-7;0;Intelsat
0.99616037;0.0014232;12.2253;318.5234;41.762;255.6422;0;-3.1E-7;0;Intelsat
0.99615992;0.0014216;12.2241;318.5159;41.8318;128.4254;0;-2.1E-7;0;Intelsat
0.99615957;0.0014203;12.2231;318.5094;41.8723;334.192;0;-1.3E-7;0;Intelsat
0.99615935;0.0014185;12.2222;318.5036;41.8997;154.2983;0;-6.0E-8;0;Intelsat
0.99615954;0.0014162;12.2205;318.4922;41.9546;154.4994;0;9.0E-8;0;Intelsat
0.99616002;0.0014147;12.2187;318.4807;42.0006;154.7297;0;2.3E-7;0;Intelsat
0.99616102;0.0014134;12.2168;318.4693;42.0465;154.8972;0;3.7E-7;0;Intelsat
0.99616218;0.001412;12.2151;318.4586;42.1142;129.4527;0;4.9E-7;0;Intelsat
0.99616322;0.0014117;12.2142;318.4527;42.135;313.0206;0;5.6E-7;0;Intelsat
0.99616431;0.0014113;12.2127;318.4443;42.167;217.3758;0;6.5E-7;0;Intelsat
0.99616607;0.0014107;12.2113;318.4351;42.2187;138.7534;0;7.3E-7;0;Intelsat
0.99616843;0.00141;12.2094;318.4235;42.2961;140.1488;0;8.4E-7;0;Intelsat
0.99616843;0.00141;12.2094;318.4235;42.2961;140.1488;0;8.3E-7;0;Intelsat
0.99617146;0.0014096;12.2075;318.4117;42.3714;145.9294;0;9.2E-7;0;Intelsat
0.9961744;0.0014093;12.2057;318.4006;42.454;130.4803;0;9.8E-7;0;Intelsat
0.99617629;0.0014087;12.2047;318.3947;42.5251;310.5045;0;1.01E-6;0;Intelsat
0.99617811;0.0014085;12.2038;318.3889;42.5604;130.6407;0;1.03E-6;0;Intelsat
0.99618172;0.0014073;12.202;318.3774;42.6882;130.7763;0;1.05E-6;0;Intelsat
0.99618406;0.001406;12.2011;318.3716;42.77;310.8243;0;1.06E-6;0;Intelsat
0.99618601;0.0014066;12.2002;318.3658;42.8042;130.9287;0;1.07E-6;0;Intelsat
0.99619022;0.0014051;12.1983;318.3542;42.9393;131.0871;0;1.06E-6;0;Intelsat
0.99619264;0.0014034;12.1973;318.3484;43.0123;311.1342;0;1.06E-6;0;Intelsat
0.99619503;0.0014036;12.1964;318.3425;43.0756;131.2343;0;1.05E-6;0;Intelsat
0.99619951;0.0014013;12.1945;318.3309;43.221;131.3612;0;1.01E-6;0;Intelsat
0.99620421;0.0013978;12.1926;318.3193;43.3894;131.4794;0;9.7E-7;0;Intelsat
0.99620898;0.0013947;12.1908;318.3077;43.5475;131.546;0;9.1E-7;0;Intelsat
0.99621151;0.0013924;12.1898;318.3019;43.6069;311.6091;0;8.7E-7;0;Intelsat
0.99621614;0.0013896;12.188;318.2903;43.7418;307.7519;0;7.9E-7;0;Intelsat
0.9962193;0.0013881;12.1869;318.2835;43.8371;157.6861;0;7.3E-7;0;Intelsat
0.9962236;0.0013844;12.185;318.2719;43.9642;153.2527;0;6.3E-7;0;Intelsat
0.9962258;0.0013826;12.1842;318.2667;43.9931;313.2799;0;5.7E-7;0;Intelsat
0.99622872;0.0013813;12.1833;318.2608;44.0684;132.1854;0;5.1E-7;0;Intelsat
0.99623376;0.0013763;12.1812;318.2477;44.1909;172.3082;0;3.5E-7;0;Intelsat
0.99623856;0.0013732;12.1794;318.2358;44.2631;175.1304;0;1.9E-7;0;Intelsat
0.99624236;0.0013705;12.1778;318.2254;44.3205;132.8048;0;3.0E-8;0;Intelsat
0.9962444;0.0013685;12.1769;318.2195;44.3313;312.947;0;-6.0E-8;0;Intelsat
0.99625018;0.0013642;12.1742;318.2018;44.4088;133.3381;0;-3.4E-7;0;Intelsat
0.99625214;0.0013624;12.1732;318.1957;44.4051;319.2938;0;-4.4E-7;0;Intelsat
0.99625369;0.0013611;12.1724;318.19;44.4373;133.5814;0;-5.3E-7;0;Intelsat
0.99625525;0.0013595;12.1714;318.1841;44.4205;317.9456;0;-6.2E-7;0;Intelsat
0.9962584;0.0013578;12.1696;318.1725;44.4201;314.0372;0;-8.0E-7;0;Intelsat
0.99626116;0.0013558;12.1677;318.1607;44.4279;319.0142;0;-9.7E-7;0;Intelsat
0.99626256;0.0013554;12.1668;318.155;44.4461;134.5076;0;-1.05E-6;0;Intelsat
0.99626478;0.0013537;12.165;318.1433;44.4472;134.8131;0;-1.21E-6;0;Intelsat
0.99626684;0.0013522;12.1631;318.1316;44.453;135.11;0;-1.35E-6;0;Intelsat
0.99626844;0.0013506;12.1612;318.1197;44.4778;135.3941;0;-1.49E-6;0;Intelsat
0.99626929;0.0013501;12.1594;318.1079;44.4893;135.6767;0;-1.62E-6;0;Intelsat
0.99627044;0.0013485;12.1575;318.096;44.5315;135.9424;0;-1.75E-6;0;Intelsat
0.99627083;0.0013484;12.1556;318.0842;44.5663;136.2009;0;-1.87E-6;0;Intelsat
0.99627101;0.0013474;12.1537;318.0723;44.6293;136.4625;0;-1.99E-6;0;Intelsat
0.99627081;0.0013472;12.1518;318.0604;44.6915;136.7131;0;-2.1E-6;0;Intelsat
0.99627026;0.0013461;12.1497;318.0484;44.7677;136.9347;0;-2.21E-6;0;Intelsat
